start=new Date('2022-03-17T00:00:00.000Z').valueOf();
sats=[{"MEAN_MOTION":"15.06368778","TLE_LINE1":"1 45377U 20019T   22075.69590042 -.00003855  00000-0 -24023-3 0  9996","CLASSIFICATION_TYPE":"U","REF_FRAME":"TEME","MEAN_MOTION_DDOT":"0.0000000000000","MEAN_ELEMENT_THEORY":"SGP4","PERIAPSIS":"546.264","EPOCH":"2022-03-16T16:42:05.796288","OBJECT_TYPE":"PAYLOAD","OBJECT_NAME":"STARLINK-1305","COUNTRY_CODE":"US","TLE_LINE2":"2 45377  53.0529 213.8428 0001509  64.6758 295.4387 15.06368778110585","OBJECT_ID":"2020-019T","TIME_SYSTEM":"UTC","ARG_OF_PERICENTER":"64.6758","ECCENTRICITY":"0.00015090","MEAN_MOTION_DOT":"-0.00003855","SEMIMAJOR_AXIS":"6925.444","CENTER_NAME":"EARTH","EPHEMERIS_TYPE":"0","ELEMENT_SET_NO":"999","APOAPSIS":"548.354","GP_ID":"198918822","BSTAR":"-0.00024023000000","FILE":"3362094","SITE":"AFETR","RA_OF_ASC_NODE":"213.8428","INCLINATION":"53.0529","NORAD_CAT_ID":"45377","MEAN_ANOMALY":"295.4387","LAUNCH_DATE":"2020-03-18","PERIOD":"95.594","DECAY_DATE":null,"REV_AT_EPOCH":"11058","RCS_SIZE":"LARGE"},{"TLE_LINE2":"2 45378  53.0528 213.9076 0001251  73.4726 286.6401 15.06376280110588","COUNTRY_CODE":"US","OBJECT_TYPE":"PAYLOAD","OBJECT_NAME":"STARLINK-1310","EPOCH":"2022-03-16T16:26:10.401504","PERIAPSIS":"546.420","MEAN_MOTION_DDOT":"0.0000000000000","MEAN_ELEMENT_THEORY":"SGP4","REF_FRAME":"TEME","CLASSIFICATION_TYPE":"U","TLE_LINE1":"1 45378U 20019U   22075.68484261 -.00000549  00000-0 -17997-4 0  9991","MEAN_MOTION":"15.06376280","SEMIMAJOR_AXIS":"6925.421","MEAN_MOTION_DOT":"-0.00000549","ARG_OF_PERICENTER":"73.4726","ECCENTRICITY":"0.00012510","TIME_SYSTEM":"UTC","OBJECT_ID":"2020-019U","BSTAR":"-0.00001799700000","FILE":"3362094","GP_ID":"198919562","APOAPSIS":"548.153","ELEMENT_SET_NO":"999","EPHEMERIS_TYPE":"0","CENTER_NAME":"EARTH","RCS_SIZE":"LARGE","REV_AT_EPOCH":"11058","DECAY_DATE":null,"LAUNCH_DATE":"2020-03-18","PERIOD":"95.594","MEAN_ANOMALY":"286.6401","INCLINATION":"53.0528","NORAD_CAT_ID":"45378","RA_OF_ASC_NODE":"213.9076","SITE":"AFETR"},{"OBJECT_ID":"2020-019V","SEMIMAJOR_AXIS":"6925.385","ARG_OF_PERICENTER":"71.2803","TIME_SYSTEM":"UTC","ECCENTRICITY":"0.00014810","MEAN_MOTION_DOT":"0.00000366","PERIAPSIS":"546.224","EPOCH":"2022-03-16T16:31:27.367680","MEAN_ELEMENT_THEORY":"SGP4","MEAN_MOTION_DDOT":"0.0000000000000","CLASSIFICATION_TYPE":"U","TLE_LINE1":"1 45379U 20019V   22075.68851120  .00000366  00000-0  43480-4 0  9995","REF_FRAME":"TEME","MEAN_MOTION":"15.06388114","COUNTRY_CODE":"US","TLE_LINE2":"2 45379  53.0527 213.8807 0001481  71.2803 288.8347 15.06388114110588","OBJECT_TYPE":"PAYLOAD","OBJECT_NAME":"STARLINK-1319","DECAY_DATE":null,"MEAN_ANOMALY":"288.8347","PERIOD":"95.593","LAUNCH_DATE":"2020-03-18","NORAD_CAT_ID":"45379","INCLINATION":"53.0527","SITE":"AFETR","RA_OF_ASC_NODE":"213.8807","RCS_SIZE":"LARGE","REV_AT_EPOCH":"11058","CENTER_NAME":"EARTH","GP_ID":"198919810","FILE":"3362094","BSTAR":"0.00004348000000","APOAPSIS":"548.276","EPHEMERIS_TYPE":"0","ELEMENT_SET_NO":"999"},{"PERIAPSIS":"546.202","EPOCH":"2022-03-16T13:17:44.173536","MEAN_MOTION_DDOT":"0.0000000000000","MEAN_ELEMENT_THEORY":"SGP4","CLASSIFICATION_TYPE":"U","TLE_LINE1":"1 45380U 20019W   22075.55398349 -.00006438  00000-0 -41409-3 0  9998","REF_FRAME":"TEME","MEAN_MOTION":"15.06363386","COUNTRY_CODE":"US","TLE_LINE2":"2 45380  53.0522 194.4790 0001622  67.8908 292.2253 15.06363386110842","OBJECT_TYPE":"PAYLOAD","OBJECT_NAME":"STARLINK-1207","OBJECT_ID":"2020-019W","SEMIMAJOR_AXIS":"6925.461","ECCENTRICITY":"0.00016220","ARG_OF_PERICENTER":"67.8908","TIME_SYSTEM":"UTC","MEAN_MOTION_DOT":"-0.00006438","CENTER_NAME":"EARTH","GP_ID":"198896815","BSTAR":"-0.00041409000000","FILE":"3361940","APOAPSIS":"548.449","ELEMENT_SET_NO":"999","EPHEMERIS_TYPE":"0","DECAY_DATE":null,"MEAN_ANOMALY":"292.2253","PERIOD":"95.594","LAUNCH_DATE":"2020-03-18","NORAD_CAT_ID":"45380","INCLINATION":"53.0522","SITE":"AFETR","RA_OF_ASC_NODE":"194.4790","RCS_SIZE":"LARGE","REV_AT_EPOCH":"11084"},{"EPHEMERIS_TYPE":"0","ELEMENT_SET_NO":"999","GP_ID":"198886918","FILE":"3361689","BSTAR":"-0.00036456000000","APOAPSIS":"548.163","CENTER_NAME":"EARTH","REV_AT_EPOCH":"11084","RCS_SIZE":"LARGE","INCLINATION":"53.0548","NORAD_CAT_ID":"45381","SITE":"AFETR","RA_OF_ASC_NODE":"194.1289","DECAY_DATE":null,"MEAN_ANOMALY":"274.2885","PERIOD":"95.594","LAUNCH_DATE":"2020-03-18","COUNTRY_CODE":"US","TLE_LINE2":"2 45381  53.0548 194.1289 0001232  85.8245 274.2885 15.06368589110843","OBJECT_NAME":"STARLINK-1258","OBJECT_TYPE":"PAYLOAD","CLASSIFICATION_TYPE":"U","TLE_LINE1":"1 45381U 20019X   22075.63138925 -.00005703  00000-0 -36456-3 0  9990","REF_FRAME":"TEME","MEAN_MOTION":"15.06368589","PERIAPSIS":"546.457","EPOCH":"2022-03-16T15:09:12.031200","MEAN_ELEMENT_THEORY":"SGP4","MEAN_MOTION_DDOT":"0.0000000000000","ECCENTRICITY":"0.00012320","ARG_OF_PERICENTER":"85.8245","TIME_SYSTEM":"UTC","MEAN_MOTION_DOT":"-0.00005703","SEMIMAJOR_AXIS":"6925.445","OBJECT_ID":"2020-019X"},{"EPHEMERIS_TYPE":"0","ELEMENT_SET_NO":"999","GP_ID":"198887667","BSTAR":"-0.00023119000000","FILE":"3361689","APOAPSIS":"548.246","CENTER_NAME":"EARTH","REV_AT_EPOCH":"11066","RCS_SIZE":"LARGE","INCLINATION":"53.0543","NORAD_CAT_ID":"45382","SITE":"AFETR","RA_OF_ASC_NODE":"194.2524","DECAY_DATE":null,"MEAN_ANOMALY":"285.3112","LAUNCH_DATE":"2020-03-18","PERIOD":"95.594","COUNTRY_CODE":"US","TLE_LINE2":"2 45382  53.0543 194.2524 0001364  74.8028 285.3112 15.06371429110668","OBJECT_TYPE":"PAYLOAD","OBJECT_NAME":"STARLINK-1264","TLE_LINE1":"1 45382U 20019Y   22075.60927645 -.00003721  00000-0 -23119-3 0  9993","CLASSIFICATION_TYPE":"U","REF_FRAME":"TEME","MEAN_MOTION":"15.06371429","PERIAPSIS":"546.356","EPOCH":"2022-03-16T14:37:21.485280","MEAN_MOTION_DDOT":"0.0000000000000","MEAN_ELEMENT_THEORY":"SGP4","ECCENTRICITY":"0.00013640","ARG_OF_PERICENTER":"74.8028","TIME_SYSTEM":"UTC","MEAN_MOTION_DOT":"-0.00003721","SEMIMAJOR_AXIS":"6925.436","OBJECT_ID":"2020-019Y"},{"FILE":"3362094","BSTAR":"-0.00008805300000","GP_ID":"198920310","APOAPSIS":"548.212","EPHEMERIS_TYPE":"0","ELEMENT_SET_NO":"999","CENTER_NAME":"EARTH","RCS_SIZE":"LARGE","REV_AT_EPOCH":"11084","DECAY_DATE":null,"LAUNCH_DATE":"2020-03-18","PERIOD":"95.595","MEAN_ANOMALY":"282.9451","NORAD_CAT_ID":"45383","INCLINATION":"53.0554","RA_OF_ASC_NODE":"194.1717","SITE":"AFETR","TLE_LINE2":"2 45383  53.0554 194.1717 0001276  77.1681 282.9451 15.06362413110849","COUNTRY_CODE":"US","OBJECT_NAME":"STARLINK-1266","OBJECT_TYPE":"PAYLOAD","EPOCH":"2022-03-16T14:58:36.470208","PERIAPSIS":"546.445","MEAN_MOTION_DDOT":"0.0000000000000","MEAN_ELEMENT_THEORY":"SGP4","REF_FRAME":"TEME","CLASSIFICATION_TYPE":"U","TLE_LINE1":"1 45383U 20019Z   22075.62403322 -.00001591  00000-0 -88053-4 0  9999","MEAN_MOTION":"15.06362413","SEMIMAJOR_AXIS":"6925.464","MEAN_MOTION_DOT":"-0.00001591","ARG_OF_PERICENTER":"77.1681","TIME_SYSTEM":"UTC","ECCENTRICITY":"0.00012760","OBJECT_ID":"2020-019Z"},{"OBJECT_ID":"2020-019AA","SEMIMAJOR_AXIS":"6925.457","MEAN_MOTION_DOT":"-0.00006612","TIME_SYSTEM":"UTC","ARG_OF_PERICENTER":"75.3044","ECCENTRICITY":"0.00013820","EPOCH":"2022-03-16T14:42:39.812256","PERIAPSIS":"546.365","MEAN_ELEMENT_THEORY":"SGP4","MEAN_MOTION_DDOT":"0.0000000000000","REF_FRAME":"TEME","CLASSIFICATION_TYPE":"U","TLE_LINE1":"1 45384U 20019AA  22075.61296079 -.00006612  00000-0 -42580-3 0  9991","MEAN_MOTION":"15.06364470","TLE_LINE2":"2 45384  53.0546 194.2232 0001382  75.3044 284.8098 15.06364470110848","COUNTRY_CODE":"US","OBJECT_NAME":"STARLINK-1267","OBJECT_TYPE":"PAYLOAD","DECAY_DATE":null,"PERIOD":"95.594","LAUNCH_DATE":"2020-03-18","MEAN_ANOMALY":"284.8098","INCLINATION":"53.0546","NORAD_CAT_ID":"45384","RA_OF_ASC_NODE":"194.2232","SITE":"AFETR","RCS_SIZE":"LARGE","REV_AT_EPOCH":"11084","CENTER_NAME":"EARTH","FILE":"3361689","BSTAR":"-0.00042580000000","GP_ID":"198886167","APOAPSIS":"548.280","ELEMENT_SET_NO":"999","EPHEMERIS_TYPE":"0"},{"NORAD_CAT_ID":"45386","INCLINATION":"53.0548","RA_OF_ASC_NODE":"193.9171","SITE":"AFETR","DECAY_DATE":null,"PERIOD":"95.594","LAUNCH_DATE":"2020-03-18","MEAN_ANOMALY":"277.0490","REV_AT_EPOCH":"11085","RCS_SIZE":"LARGE","CENTER_NAME":"EARTH","EPHEMERIS_TYPE":"0","ELEMENT_SET_NO":"999","FILE":"3362094","BSTAR":"-0.00021507000000","GP_ID":"198918823","APOAPSIS":"548.268","OBJECT_ID":"2020-019AC","MEAN_MOTION_DOT":"-0.00003481","ARG_OF_PERICENTER":"83.0658","ECCENTRICITY":"0.00014000","TIME_SYSTEM":"UTC","SEMIMAJOR_AXIS":"6925.434","REF_FRAME":"TEME","TLE_LINE1":"1 45386U 20019AC  22075.68300812 -.00003481  00000-0 -21507-3 0  9998","CLASSIFICATION_TYPE":"U","MEAN_MOTION":"15.06372198","EPOCH":"2022-03-16T16:23:31.901568","PERIAPSIS":"546.329","MEAN_MOTION_DDOT":"0.0000000000000","MEAN_ELEMENT_THEORY":"SGP4","TLE_LINE2":"2 45386  53.0548 193.9171 0001400  83.0658 277.0490 15.06372198110855","COUNTRY_CODE":"US","OBJECT_NAME":"STARLINK-1272","OBJECT_TYPE":"PAYLOAD"},{"EPHEMERIS_TYPE":"0","ELEMENT_SET_NO":"999","GP_ID":"198919563","FILE":"3362094","BSTAR":"-0.00033033000000","APOAPSIS":"548.325","CENTER_NAME":"EARTH","REV_AT_EPOCH":"11084","RCS_SIZE":"LARGE","NORAD_CAT_ID":"45387","INCLINATION":"53.0530","SITE":"AFETR","RA_OF_ASC_NODE":"194.1062","DECAY_DATE":null,"MEAN_ANOMALY":"287.0211","LAUNCH_DATE":"2020-03-18","PERIOD":"95.594","COUNTRY_CODE":"US","TLE_LINE2":"2 45387  53.0530 194.1062 0001447  73.0936 287.0211 15.06364294110847","OBJECT_NAME":"STARLINK-1274","OBJECT_TYPE":"PAYLOAD","CLASSIFICATION_TYPE":"U","TLE_LINE1":"1 45387U 20019AD  22075.63877010 -.00005193  00000-0 -33033-3 0  9992","REF_FRAME":"TEME","MEAN_MOTION":"15.06364294","PERIAPSIS":"546.321","EPOCH":"2022-03-16T15:19:49.736640","MEAN_MOTION_DDOT":"0.0000000000000","MEAN_ELEMENT_THEORY":"SGP4","ARG_OF_PERICENTER":"73.0936","TIME_SYSTEM":"UTC","ECCENTRICITY":"0.00014470","MEAN_MOTION_DOT":"-0.00005193","SEMIMAJOR_AXIS":"6925.458","OBJECT_ID":"2020-019AD"}];
